{"type": "FeatureCollection", "features": [ {"type": "Feature", "properties": {"norad_id": 33492, "name": "GOSAT (IBUKI)", "group": "resource", "lat": -34.11866568851515, "lon": -89.07319062085304, "alt_km": 675.4553193882493, "timestamp": "2025-12-13T20:38:50.651536+00:00", "meta": {"OBJECT_NAME": "GOSAT (IBUKI)", "OBJECT_ID": "2009-002A", "EPOCH": "2025-12-13T06:34:57.648576", "MEAN_MOTION": 14.67557071, "ECCENTRICITY": 9.365e-05, "INCLINATION": 98.0769, "RA_OF_ASC_NODE": 95.8701, "ARG_OF_PERICENTER": 92.3539, "MEAN_ANOMALY": 267.7773, "EPHEMERIS_TYPE": 0, "CLASSIFICATION_TYPE": "U", "NORAD_CAT_ID": 33492, "ELEMENT_SET_NO": 999, "REV_AT_EPOCH": 90419, "BSTAR": 0.000261927, "MEAN_MOTION_DOT": 1.438e-05, "MEAN_MOTION_DDOT": 0}, "tle": {"line1": "1 33492U 09002A   25347.27427834  .00001438  00000+0  26193-3 0  9999", "line2": "2 33492  98.0769  95.8701 0000936  92.3539 267.7773 14.67557071904196"}}, "geometry": {"type": "Point", "coordinates": [-89.07319062085304, -34.11866568851515]}}, {"type": "Feature", "properties": {"norad_id": 35681, "name": "DEIMOS-1", "group": "resource", "lat": -37.79137978122681, "lon": 154.44529470526885, "alt_km": 652.5532436303847, "timestamp": "2025-12-13T20:38:50.651548+00:00", "meta": {"OBJECT_NAME": "DEIMOS-1", "OBJECT_ID": "2009-041A", "EPOCH": "2025-12-13T07:47:41.943264", "MEAN_MOTION": 14.74954265, "ECCENTRICITY": 0.00027458, "INCLINATION": 97.7151, "RA_OF_ASC_NODE": 147.9007, "ARG_OF_PERICENTER": 79.152, "MEAN_ANOMALY": 280.9999, "EPHEMERIS_TYPE": 0, "CLASSIFICATION_TYPE": "U", "NORAD_CAT_ID": 35681, "ELEMENT_SET_NO": 999, "REV_AT_EPOCH": 87948, "BSTAR": 0.00018147471, "MEAN_MOTION_DOT": 1.172e-05, "MEAN_MOTION_DDOT": 0}, "tle": {"line1": "1 35681U 09041A   25347.32479101  .00001172  00000+0  18147-3 0  9999", "line2": "2 35681  97.7151 147.9007 0002745  79.1520 280.9999 14.74954265879484"}}, "geometry": {"type": "Point", "coordinates": [154.44529470526885, -37.79137978122681]}}, {"type": "Feature", "properties": {"norad_id": 35682, "name": "DUBAISAT-1", "group": "resource", "lat": -73.37550073268162, "lon": -89.49342709269075, "alt_km": 649.9087729027951, "timestamp": "2025-12-13T20:38:50.651559+00:00", "meta": {"OBJECT_NAME": "DUBAISAT-1", "OBJECT_ID": "2009-041B", "EPOCH": "2025-12-13T08:05:32.518752", "MEAN_MOTION": 14.74607844, "ECCENTRICITY": 0.00095229, "INCLINATION": 97.9784, "RA_OF_ASC_NODE": 118.0079, "ARG_OF_PERICENTER": 312.5561, "MEAN_ANOMALY": 47.4843, "EPHEMERIS_TYPE": 0, "CLASSIFICATION_TYPE": "U", "NORAD_CAT_ID": 35682, "ELEMENT_SET_NO": 999, "REV_AT_EPOCH": 87770, "BSTAR": 0.00034970241, "MEAN_MOTION_DOT": 2.282e-05, "MEAN_MOTION_DDOT": 0}, "tle": {"line1": "1 35682U 09041B   25347.33718193  .00002282  00000+0  34970-3 0  9993", "line2": "2 35682  97.9784 118.0079 0009522 312.5561  47.4843 14.74607844877701"}}, "geometry": {"type": "Point", "coordinates": [-89.49342709269075, -73.37550073268162]}}, {"type": "Feature", "properties": {"norad_id": 35931, "name": "OCEANSAT-2", "group": "resource", "lat": 48.148995062228245, "lon": 177.63682692144926, "alt_km": 890.5456813900464, "timestamp": "2025-12-13T20:38:50.651570+00:00", "meta": {"OBJECT_NAME": "OCEANSAT-2", "OBJECT_ID": "2009-051A", "EPOCH": "2025-12-13T06:17:56.194944", "MEAN_MOTION": 13.99624549, "ECCENTRICITY": 0.00162037, "INCLINATION": 98.2222, "RA_OF_ASC_NODE": 347.8101, "ARG_OF_PERICENTER": 43.6882, "MEAN_ANOMALY": 316.5564, "EPHEMERIS_TYPE": 0, "CLASSIFICATION_TYPE": "U", "NORAD_CAT_ID": 35931, "ELEMENT_SET_NO": 999, "REV_AT_EPOCH": 85332, "BSTAR": -6.7280855e-05, "MEAN_MOTION_DOT": -1.36e-06, "MEAN_MOTION_DDOT": 0}, "tle": {"line1": "1 35931U 09051A   25347.26245596 -.00000136  00000+0 -67281-4 0  9995", "line2": "2 35931  98.2222 347.8101 0016203  43.6882 316.5564 13.99624549853328"}}, "geometry": {"type": "Point", "coordinates": [177.63682692144926, 48.148995062228245]}}, {"type": "Feature", "properties": {"norad_id": 35946, "name": "WORLDVIEW-2 (WV-2)", "group": "resource", "lat": 44.965263859515034, "lon": 50.36066437713414, "alt_km": 758.7234933005439, "timestamp": "2025-12-13T20:38:50.651581+00:00", "meta": {"OBJECT_NAME": "WORLDVIEW-2 (WV-2)", "OBJECT_ID": "2009-055A", "EPOCH": "2025-12-13T07:04:26.520096", "MEAN_MOTION": 14.37724436, "ECCENTRICITY": 0.0005166, "INCLINATION": 98.4788, "RA_OF_ASC_NODE": 58.3712, "ARG_OF_PERICENTER": 69.2893, "MEAN_ANOMALY": 290.8847, "EPHEMERIS_TYPE": 0, "CLASSIFICATION_TYPE": "U", "NORAD_CAT_ID": 35946, "ELEMENT_SET_NO": 999, "REV_AT_EPOCH": 84893, "BSTAR": 0.00010732888, "MEAN_MOTION_DOT": 2.79e-06, "MEAN_MOTION_DDOT": 0}, "tle": {"line1": "1 35946U 09055A   25347.29475139  .00000279  00000+0  10733-3 0  9991", "line2": "2 35946  98.4788  58.3712 0005166  69.2893 290.8847 14.37724436848935"}}, "geometry": {"type": "Point", "coordinates": [50.36066437713414, 44.965263859515034]}}, {"type": "Feature", "properties": {"norad_id": 36036, "name": "SMOS", "group": "resource", "lat": 81.52720698667248, "lon": 87.69278063402103, "alt_km": 751.1037282504403, "timestamp": "2025-12-13T20:38:50.651592+00:00", "meta": {"OBJECT_NAME": "SMOS", "OBJECT_ID": "2009-059A", "EPOCH": "2025-12-13T06:53:27.117024", "MEAN_MOTION": 14.39741986, "ECCENTRICITY": 0.00011028, "INCLINATION": 98.4381, "RA_OF_ASC_NODE": 172.3275, "ARG_OF_PERICENTER": 84.4214, "MEAN_ANOMALY": 275.71, "EPHEMERIS_TYPE": 0, "CLASSIFICATION_TYPE": "U", "NORAD_CAT_ID": 36036, "ELEMENT_SET_NO": 999, "REV_AT_EPOCH": 84670, "BSTAR": 0.00020570841, "MEAN_MOTION_DOT": 6.01e-06, "MEAN_MOTION_DDOT": 0}, "tle": {"line1": "1 36036U 09059A   25347.28711941  .00000601  00000+0  20571-3 0  9999", "line2": "2 36036  98.4381 172.3275 0001102  84.4214 275.7100 14.39741986846706"}}, "geometry": {"type": "Point", "coordinates": [87.69278063402103, 81.52720698667248]}}, {"type": "Feature", "properties": {"norad_id": 36110, "name": "YAOGAN-7", "group": "resource", "lat": 66.03680127038372, "lon": -148.90592815274977, "alt_km": 644.1988862479939, "timestamp": "2025-12-13T20:38:50.651602+00:00", "meta": {"OBJECT_NAME": "YAOGAN-7", "OBJECT_ID": "2009-069A", "EPOCH": "2025-12-13T05:43:02.385984", "MEAN_MOTION": 14.77734076, "ECCENTRICITY": 0.00233648, "INCLINATION": 98.03, "RA_OF_ASC_NODE": 228.9935, "ARG_OF_PERICENTER": 279.5984, "MEAN_ANOMALY": 80.2586, "EPHEMERIS_TYPE": 0, "CLASSIFICATION_TYPE": "U", "NORAD_CAT_ID": 36110, "ELEMENT_SET_NO": 999, "REV_AT_EPOCH": 86216, "BSTAR": 0.00015871538, "MEAN_MOTION_DOT": 1.089e-05, "MEAN_MOTION_DDOT": 0}, "tle": {"line1": "1 36110U 09069A   25347.23822206  .00001089  00000+0  15872-3 0  9994", "line2": "2 36110  98.0300 228.9935 0023364 279.5984  80.2586 14.77734076862161"}}, "geometry": {"type": "Point", "coordinates": [-148.90592815274977, 66.03680127038372]}}, {"type": "Feature", "properties": {"norad_id": 36605, "name": "TANDEM-X", "group": "resource", "lat": 59.36469422451927, "lon": -174.019257277815, "alt_km": 501.67072660059966, "timestamp": "2025-12-13T20:38:50.651613+00:00", "meta": {"OBJECT_NAME": "TANDEM-X", "OBJECT_ID": "2010-030A", "EPOCH": "2025-12-12T12:30:19.785312", "MEAN_MOTION": 15.19147619, "ECCENTRICITY": 0.00017615, "INCLINATION": 97.4455, "RA_OF_ASC_NODE": 351.9037, "ARG_OF_PERICENTER": 90.78, "MEAN_ANOMALY": 269.3636, "EPHEMERIS_TYPE": 0, "CLASSIFICATION_TYPE": "U", "NORAD_CAT_ID": 36605, "ELEMENT_SET_NO": 999, "REV_AT_EPOCH": 85830, "BSTAR": 0.00012546262, "MEAN_MOTION_DOT": 2.568e-05, "MEAN_MOTION_DDOT": 0}, "tle": {"line1": "1 36605U 10030A   25346.52106233  .00002568  00000+0  12546-3 0  9997", "line2": "2 36605  97.4455 351.9037 0001761  90.7800 269.3636 15.19147619858306"}}, "geometry": {"type": "Point", "coordinates": [-174.019257277815, 59.36469422451927]}}, {"type": "Feature", "properties": {"norad_id": 36795, "name": "CARTOSAT-2B", "group": "resource", "lat": -1.5956116984846829, "lon": 37.0725606963959, "alt_km": 634.1334075043678, "timestamp": "2025-12-13T20:38:50.651623+00:00", "meta": {"OBJECT_NAME": "CARTOSAT-2B", "OBJECT_ID": "2010-035A", "EPOCH": "2025-12-13T06:02:19.000320", "MEAN_MOTION": 14.78727671, "ECCENTRICITY": 0.00130808, "INCLINATION": 97.7853, "RA_OF_ASC_NODE": 36.2653, "ARG_OF_PERICENTER": 75.1906, "MEAN_ANOMALY": 285.0754, "EPHEMERIS_TYPE": 0, "CLASSIFICATION_TYPE": "U", "NORAD_CAT_ID": 36795, "ELEMENT_SET_NO": 999, "REV_AT_EPOCH": 83237, "BSTAR": 0.00027343256, "MEAN_MOTION_DOT": 1.96e-05, "MEAN_MOTION_DDOT": 0}, "tle": {"line1": "1 36795U 10035A   25347.25160880  .00001960  00000+0  27343-3 0  9997", "line2": "2 36795  97.7853  36.2653 0013080  75.1906 285.0754 14.78727671832370"}}, "geometry": {"type": "Point", "coordinates": [37.0725606963959, -1.5956116984846829]}}, {"type": "Feature", "properties": {"norad_id": 36834, "name": "YAOGAN-10", "group": "resource", "lat": 75.17512076413827, "lon": -140.6157971686653, "alt_km": 606.6796036396072, "timestamp": "2025-12-13T20:38:50.651635+00:00", "meta": {"OBJECT_NAME": "YAOGAN-10", "OBJECT_ID": "2010-038A", "EPOCH": "2025-12-13T07:49:49.618272", "MEAN_MOTION": 14.84612404, "ECCENTRICITY": 0.00015024, "INCLINATION": 97.9151, "RA_OF_ASC_NODE": 7.1428, "ARG_OF_PERICENTER": 81.8065, "MEAN_ANOMALY": 48.246, "EPHEMERIS_TYPE": 0, "CLASSIFICATION_TYPE": "U", "NORAD_CAT_ID": 36834, "ELEMENT_SET_NO": 999, "REV_AT_EPOCH": 82962, "BSTAR": 0.00030125407, "MEAN_MOTION_DOT": 2.492e-05, "MEAN_MOTION_DDOT": 0}, "tle": {"line1": "1 36834U 10038A   25347.32626873  .00002492  00000+0  30125-3 0  9994", "line2": "2 36834  97.9151   7.1428 0001502  81.8065  48.2460 14.84612404829621"}}, "geometry": {"type": "Point", "coordinates": [-140.6157971686653, 75.17512076413827]}}]}